[{"OBJECT_NAME":"STARLINK-6079","OBJECT_ID":"2023-046AD","EPOCH":"2026-03-09T22:00:01.999584","MEAN_MOTION":15.12009533,"ECCENTRICITY":0.00021275,"INCLINATION":42.9999,"RA_OF_ASC_NODE":144.8653,"ARG_OF_PERICENTER":279.9267,"MEAN_ANOMALY":119.034,"EPHEMERIS_TYPE":0,"CLASSIFICATION_TYPE":"U","NORAD_CAT_ID":56120,"ELEMENT_SET_NO":999,"REV_AT_EPOCH":572,"BSTAR":0.00036558396,"MEAN_MOTION_DOT":6.172e-5,"MEAN_MOTION_DDOT":0},{"OBJECT_NAME":"ICEYE-X59","OBJECT_ID":"2025-276CQ","EPOCH":"2026-03-09T10:36:55.321344","MEAN_MOTION":15.13098076,"ECCENTRICITY":0.00031789,"INCLINATION":97.426,"RA_OF_ASC_NODE":143.501,"ARG_OF_PERICENTER":13.4208,"MEAN_ANOMALY":346.7107,"EPHEMERIS_TYPE":0,"CLASSIFICATION_TYPE":"U","NORAD_CAT_ID":66752,"ELEMENT_SET_NO":999,"REV_AT_EPOCH":1526,"BSTAR":0.00038489192,"MEAN_MOTION_DOT":6.752e-5,"MEAN_MOTION_DDOT":0}]
